NORAD_CAT_ID,OBJECT_NAME,OBJECT_TYPE,EPOCH,MEAN_MOTION,ECCENTRICITY,INCLINATION,RA_OF_ASC_NODE,ARG_OF_PERICENTER,MEAN_ANOMALY,BSTAR,MEAN_MOTION_DOT,MEAN_MOTION_DDOT,TLE_LINE0,TLE_LINE1,TLE_LINE2,SEMIMAJOR_AXIS,PERIOD,APOGEE,PERIGEE,DECAYED
55758.0,STARLINK-5072,PAYLOAD,2023-03-21 22:00:00,15.69872016,0.0003428,69.997,104.1522,265.8622,116.3585,0.00085458,0.00103598,0.0,0 STARLINK-5072,1 55758U 23028T   23080.91667824  .00103598  00000-0  85458-3 0  9990,2 55758  69.9970 104.1522 0003428 265.8622 116.3585 15.69872016  1303,6737.4,91.727,361.575,356.956,0.0
55758.0,STARLINK-5072,PAYLOAD,2023-03-22 22:00:00,15.69834635,0.0003502,70.0002,101.3402,262.2733,9.9715,0.0012342,0.00150323,0.0,0 STARLINK-5072,1 55758U 23028T   23081.91667824  .00150323  00000-0  12342-2 0  9990,2 55758  70.0002 101.3402 0003502 262.2733   9.9715 15.69834635  3674,6737.507,91.729,361.732,357.013,0.0
55758.0,STARLINK-5072,PAYLOAD,2023-03-23 06:00:00,15.69915977,0.0003542,70.0007,100.403,264.3711,91.1505,1.4506e-05,1.531e-05,0.0,0 STARLINK-5072,1 55758U 23028T   23082.25001157  .00001531  00000-0  14506-4 0  9991,2 55758  70.0007 100.4030 0003542 264.3711  91.1505 15.69915977  3735,6737.274,91.725,361.526,356.753,0.0
55758.0,STARLINK-5072,PAYLOAD,2023-03-23 14:00:01,15.69963377,0.0003552,70.0003,99.4656,267.9715,170.9329,-0.00031775,-0.00038309,0.0,0 STARLINK-5072,1 55758U 23028T   23082.58335648 -.00038309  00000-0 -31775-3 0  9993,2 55758  70.0003  99.4656 0003552 267.9715 170.9329 15.69963377  1304,6737.139,91.722,361.397,356.611,0.0
55758.0,STARLINK-5072,PAYLOAD,2023-03-24 17:00:11,15.70064205,0.0003497,70.0005,96.3029,265.4779,50.331,-0.0048948,-0.00554762,0.0,0 STARLINK-5072,1 55758U 23028T   23083.70846065 -.00554762  00000-0 -48948-2 0  9993,2 55758  70.0005  96.3029 0003497 265.4779  50.3310 15.70064205  3955,6736.85,91.716,361.071,356.359,0.0
55758.0,STARLINK-5072,PAYLOAD,2023-03-24 22:00:01,15.69915858,0.0003685,70.0007,95.7177,263.7442,148.5642,-0.0077876,-0.00847148,0.0,0 STARLINK-5072,1 55758U 23028T   23083.91668981 -.00847148  00000-0 -77876-2 0  9990,2 55758  70.0007  95.7177 0003685 263.7442 148.5642 15.69915858  1303,6737.275,91.725,361.622,356.657,0.0
55758.0,STARLINK-5072,PAYLOAD,2023-03-25 03:53:47,15.69735278,0.000266,70.0004,95.0262,244.3521,115.74,-0.00080106,-0.000947,0.0,0 STARLINK-5072,1 55758U 23028T   23084.16235764 -.00094700  00000-0 -80106-3 0  9996,2 55758  70.0004  95.0262 0002660 244.3521 115.7400 15.69735278  4030,6737.791,91.735,361.449,357.864,0.0
55758.0,STARLINK-5072,PAYLOAD,2023-03-25 08:29:09,15.69490518,0.0004864,70.0005,94.4894,268.2748,91.7891,-0.0016228,-0.00187739,0.0,0 STARLINK-5072,1 55758U 23028T   23084.35358776 -.00187739  00000-0 -16228-2 0  9994,2 55758  70.0005  94.4894 0004864 268.2748  91.7891 15.69490518  4064,6738.492,91.75,363.634,357.079,0.0
55758.0,STARLINK-5072,PAYLOAD,2023-03-25 17:39:55,15.69309204,0.0003683,70.0003,93.4162,309.9576,50.1296,-0.0012152,-0.00140322,0.0,0 STARLINK-5072,1 55758U 23028T   23084.73606173 -.00140322  00000-0 -12152-2 0  9992,2 55758  70.0003  93.4162 0003683 309.9576  50.1296 15.69309204  4125,6739.011,91.76,363.358,358.394,0.0
55758.0,STARLINK-5072,PAYLOAD,2023-03-25 23:47:00,15.69330752,0.001425,70.0004,92.6998,273.6606,86.296,-0.00060101,-0.00070556,0.0,0 STARLINK-5072,1 55758U 23028T   23084.99097908 -.00070556  00000-0 -60101-3 0  9999,2 55758  70.0004  92.6998 0014250 273.6606  86.2960 15.69330752  4161,6738.949,91.759,370.417,351.211,0.0
55758.0,STARLINK-5072,PAYLOAD,2023-03-26 14:00:01,15.66717573,0.0003519,70.0008,91.0439,275.1106,184.1506,-0.010053,-0.00962096,0.0,0 STARLINK-5072,1 55758U 23028T   23085.58334491 -.00962096  00000-0 -10053-1 0  9994,2 55758  70.0008  91.0439 0003519 275.1106 184.1506 15.66717573  4257,6746.441,91.912,370.68,365.931,0.0
55758.0,STARLINK-5072,PAYLOAD,2023-03-26 22:00:01,15.66032384,0.000346,70.0011,90.1118,266.2431,272.1517,-0.0094972,-0.00890622,0.0,0 STARLINK-5072,1 55758U 23028T   23085.91668981 -.00890622  00000-0 -94972-2 0  9993,2 55758  70.0011  90.1118 0003460 266.2431 272.1517 15.66032384  1305,6748.408,91.952,372.608,367.938,0.0
55758.0,STARLINK-5072,PAYLOAD,2023-03-27 06:00:00,15.65376285,0.0003625,70.0015,89.1805,270.6832,345.9374,-0.0099616,-0.00908261,0.0,0 STARLINK-5072,1 55758U 23028T   23086.25001157 -.00908261  00000-0 -99616-2 0  9996,2 55758  70.0015  89.1805 0003625 270.6832 345.9374 15.65376285  4355,6750.294,91.991,374.606,369.712,0.0
55758.0,STARLINK-5072,PAYLOAD,2023-03-27 14:00:01,15.64762817,0.0003688,70.0013,88.2499,272.7962,61.3016,-0.01089,-0.0096332,0.0,0 STARLINK-5072,1 55758U 23028T   23086.58334491 -.00963320  00000-0 -10890-1 0  9995,2 55758  70.0013  88.2499 0003688 272.7962  61.3016 15.64762817  1301,6752.058,92.027,376.413,371.433,0.0
55758.0,STARLINK-5072,PAYLOAD,2023-03-27 22:00:00,15.64075463,0.0003618,70.0013,87.3209,268.4294,142.391,-0.010284,-0.0089179,0.0,0 STARLINK-5072,1 55758U 23028T   23086.91667824 -.00891790  00000-0 -10284-1 0  9999,2 55758  70.0013  87.3209 0003618 268.4294 142.3910 15.64075463  1300,6754.036,92.067,378.345,373.457,0.0
55758.0,STARLINK-5072,PAYLOAD,2023-03-28 06:00:00,15.63399666,0.000353,70.0011,86.3924,272.6272,214.1413,-0.01036,-0.00876095,0.0,0 STARLINK-5072,1 55758U 23028T   23087.25001157 -.00876095  00000-0 -10360-1 0  9994,2 55758  70.0011  86.3924 0003530 272.6272 214.1413 15.63399666  4512,6755.982,92.107,380.232,375.462,0.0
55758.0,STARLINK-5072,PAYLOAD,2023-03-28 14:00:01,15.62816137,0.0003418,70.0009,85.4647,272.4028,289.4897,-0.012017,-0.00982107,0.0,0 STARLINK-5072,1 55758U 23028T   23087.58334491 -.00982107  00000-0 -12017-1 0  9993,2 55758  70.0009  85.4647 0003418 272.4028 289.4897 15.62816137  1304,6757.664,92.141,381.839,377.219,0.0
55758.0,STARLINK-5072,PAYLOAD,2023-03-28 22:00:00,15.62125492,0.0003452,70.0012,84.538,265.8444,10.4249,-0.011243,-0.0090195,0.0,0 STARLINK-5072,1 55758U 23028T   23087.91667824 -.00901950  00000-0 -11243-1 0  9996,2 55758  70.0012  84.5380 0003452 265.8444  10.4249 15.62125492  4615,6759.655,92.182,383.854,379.187,0.0
55758.0,STARLINK-5072,PAYLOAD,2023-03-29 14:00:01,15.60848451,0.000338,70.0009,82.6871,272.8058,149.8487,-0.012715,-0.00964291,0.0,0 STARLINK-5072,1 55758U 23028T   23088.58334491 -.00964291  00000-0 -12715-1 0  9993,2 55758  70.0009  82.6871 0003380 272.8058 149.8487 15.60848451  4722,6763.342,92.258,387.493,382.921,0.0
55758.0,STARLINK-5072,PAYLOAD,2023-03-29 22:00:00,15.60175684,0.000326,70.0011,81.7632,265.8066,228.8694,-0.012282,-0.00912576,0.0,0 STARLINK-5072,1 55758U 23028T   23088.91667824 -.00912576  00000-0 -12282-1 0  9997,2 55758  70.0011  81.7632 0003260 265.8066 228.8694 15.60175684  1308,6765.286,92.297,389.357,384.946,0.0
55758.0,STARLINK-5072,PAYLOAD,2023-03-30 06:00:00,15.59484647,0.0003222,70.0009,80.84,272.5844,293.3508,-0.011912,-0.00866197,0.0,0 STARLINK-5072,1 55758U 23028T   23089.25001157 -.00866197  00000-0 -11912-1 0  9992,2 55758  70.0009  80.8400 0003222 272.5844 293.3508 15.59484647  4826,6767.285,92.338,391.33,386.969,0.0
55758.0,STARLINK-5072,PAYLOAD,2023-03-30 22:00:00,15.58224503,0.0003426,70.0012,78.9963,266.3767,79.6686,-0.013386,-0.00922423,0.0,0 STARLINK-5072,1 55758U 23028T   23089.91667824 -.00922423  00000-0 -13386-1 0  9996,2 55758  70.0012  78.9963 0003426 266.3767  79.6686 15.58224503  4939,6770.933,92.413,395.117,390.478,0.0
55758.0,STARLINK-5072,PAYLOAD,2023-03-31 22:00:00,15.56268766,0.0003257,70.0008,76.2375,264.1917,286.1819,-0.014408,-0.00922513,0.0,0 STARLINK-5072,1 55758U 23028T   23090.91667824 -.00922513  00000-0 -14408-1 0  9994,2 55758  70.0008  76.2375 0003257 264.1917 286.1819 15.56268766  5084,6776.604,92.529,400.676,396.262,0.0
55758.0,STARLINK-5072,PAYLOAD,2023-04-01 14:00:01,15.54971501,0.0003331,70.0005,74.4026,268.2093,54.4753,-0.015692,-0.00954305,0.0,0 STARLINK-5072,1 55758U 23028T   23091.58334491 -.00954305  00000-0 -15692-1 0  9999,2 55758  70.0005  74.4026 0003331 268.2093  54.4753 15.54971501  1307,6780.372,92.606,404.496,399.979,0.0
55758.0,STARLINK-5072,PAYLOAD,2023-04-01 22:00:00,15.54314548,0.0003479,70.0007,73.4869,266.2362,121.4253,-0.015551,-0.00926032,0.0,0 STARLINK-5072,1 55758U 23028T   23091.91667824 -.00926032  00000-0 -15551-1 0  9995,2 55758  70.0007  73.4869 0003479 266.2362 121.4253 15.54314548  5242,6782.283,92.645,406.507,401.788,0.0
55758.0,STARLINK-5072,PAYLOAD,2023-04-02 14:00:01,15.53002592,0.0003372,70.0002,71.6573,270.9847,244.2985,-0.016527,-0.00936967,0.0,0 STARLINK-5072,1 55758U 23028T   23092.58334491 -.00936967  00000-0 -16527-1 0  9992,2 55758  70.0002  71.6573 0003372 270.9847 244.2985 15.53002592  1302,6786.102,92.724,410.255,405.679,0.0
55758.0,STARLINK-5072,PAYLOAD,2023-04-02 22:00:00,15.52363813,0.0003402,70.0006,70.744,262.8855,315.0209,-0.016877,-0.0093511,0.0,0 STARLINK-5072,1 55758U 23028T   23092.91667824 -.00935110  00000-0 -16877-1 0  9995,2 55758  70.0006  70.7440 0003402 262.8855 315.0209 15.52363813  1303,6787.964,92.762,412.138,407.519,0.0
55758.0,STARLINK-5072,PAYLOAD,2023-04-03 06:00:00,15.5151443,0.0003513,70.0007,69.8315,272.3274,7.4764,-0.0073231,-0.00412949,0.0,0 STARLINK-5072,1 55758U 23028T   23093.25001157 -.00412949  00000-0 -73231-2 0  9992,2 55758  70.0007  69.8315 0003513 272.3274   7.4764 15.51514430  5447,6790.441,92.813,414.691,409.92,0.0
55758.0,STARLINK-5072,PAYLOAD,2023-04-03 12:00:00,15.51240304,0.0003754,70.0003,69.1477,271.5511,324.0937,-0.00065669,-0.00038576,0.0,0 STARLINK-5072,1 55758U 23028T   23093.50001157 -.00038576  00000-0 -65669-3 0  9997,2 55758  70.0003  69.1477 0003754 271.5511 324.0937 15.51240304  5487,6791.241,92.829,415.655,410.556,0.0
55758.0,STARLINK-5072,PAYLOAD,2023-04-03 14:00:01,15.51235986,0.0003721,70.0004,68.9198,269.964,70.9111,-0.00061105,-0.00035913,0.0,0 STARLINK-5072,1 55758U 23028T   23093.58334491 -.00035913  00000-0 -61105-3 0  9998,2 55758  70.0004  68.9198 0003721 269.9640  70.9111 15.51235986  1301,6791.253,92.829,415.645,410.591,0.0
